ICEYE-X40               
1 60549U 24149CK  26068.75921699  .00003253  00000+0  28352-3 0  9999
2 60549  97.6865 146.8579 0005983  65.2061 294.9783 14.97556326 85195
STARLINK-36263          
1 67202U 25304L   26068.29534749  .00022821  00000+0  19147-2 0  9994
2 67202  70.0012 175.5312 0003541 267.9987  92.0766 14.98319080 13821
